COSMOS 1892             
1 18421U 87088A   20262.86090029  .00000656  00000-0  31253-4 0  9998
2 18421  82.5029 181.0990 0016668 100.1234 260.1881 15.17224161798718
SL-14 R/B               
1 18749U 88001B   20262.80876091  .00000057  00000-0  40556-5 0  9994
2 18749  82.5109 270.1493 0018565 355.5924 177.3610 14.83226714745706
COSMOS 1933             
1 18958U 88020A   20262.88662335 -.00000182  00000-0 -15361-4 0  9995
2 18958  82.5308  35.3606 0011378 185.9210 174.1884 15.03760370749126
SL-3 R/B                
1 19046U 88032B   20262.88296211 -.00000028  00000-0  23625-5 0  9994
2 19046  97.3979 279.7951 0036271 248.1142 111.6226 15.02736466750996
SL-16 R/B               
1 19120U 88039B   20263.13987259 -.00000041  00000-0  31226-5 0  9993
2 19120  71.0144 330.5610 0021379 169.5022 190.6553 14.19207677675211
COSMOS 1953             
1 19210U 88050A   20262.86570807 -.00000165  00000-0 -13310-4 0  9993
2 19210  82.5174 319.1574 0014299 154.6610 205.5322 15.06024547735727
SL-8 R/B                
1 19257U 88053B   20262.90445098 -.00000001  00000-0  84184-5 0  9991
2 19257  74.0498 189.1529 0019844 148.1506 272.7865 14.37480605689439
COSMOS 1975             
1 19573U 88093A   20262.77572378  .00000732  00000-0  49587-4 0  9990
2 19573  82.5167 273.7793 0013419 198.9415 161.1315 15.04924155717547
SL-14 R/B               
1 19574U 88093B   20262.84472222  .00000066  00000-0  50448-5 0  9995
2 19574  82.5298 112.7274 0022316 150.5347 220.7682 14.83337300704713
SL-16 R/B               
1 19650U 88102B   20262.67587842  .00000028  00000-0  38295-4 0  9990
2 19650  71.0016  33.8783 0014121 181.7076 178.4001 14.15795342644072
INTERCOSMOS 24          
1 20261U 89080A   20262.60654967  .00000117  00000-0  33380-4 0  9991
2 20261  82.6063 319.9965 1201699 232.8757 115.6575 12.56131526415699
SL-14 R/B               
1 20262U 89080C   20262.66657233  .00000023  00000-0 -24845-5 0  9991
2 20262  82.5988  14.2209 1237657  64.6288 307.7685 12.48945665410626
DELTA 2 R/B(1)          
1 20303U 89085B   20262.40751443  .00001036  00000-0  34817-4 0  9995
2 20303  35.6344 146.3939 0095507 282.9222  76.0853 15.27590085682280
DELTA 1 R/B             
1 20323U 89089B   20262.62344464  .00000023  00000-0  15361-4 0  9994
2 20323  97.1038  33.6072 0070319 298.4496  60.9628 14.48358347606351
ARIANE 40 R/B           
1 20443U 90005H   20262.60646896  .00000016  00000-0  19763-4 0  9991
2 20443  98.5675 324.2385 0011462  68.9141 291.3270 14.38098875605508
DELTA 2 R/B(1)          
1 20453U 90008B   20263.17345924  .00000359  00000-0  23577-4 0  9994
2 20453  35.6251  63.6146 0280343   7.1459 353.3136 14.85668910625140
COSMOS 2058             
1 20465U 90010A   20262.82996226  .00000146  00000-0  10091-4 0  9999
2 20465  82.4920 183.4957 0013861 244.3843 115.5948 14.98044073642306
SL-14 R/B               
1 20466U 90010B   20263.16281578  .00000078  00000-0  68835-5 0  9999
2 20466  82.5055 339.0800 0021310  33.4581 326.7974 14.81392547653667
SL-14 R/B               
1 20511U 90018B   20262.63869229  .00000057  00000-0  44000-5 0  9999
2 20511  82.5203 286.3605 0017776 167.3819 332.3105 14.80048080626895
HST                     
1 20580U 90037B   20262.86133120  .00000389  00000-0  12666-4 0  9995
2 20580  28.4701  61.8367 0002786  20.4275 110.3962 15.09432351470188
SL-16 R/B               
1 20625U 90046B   20262.91274032 -.00000048  00000-0  18703-7 0  9993
2 20625  71.0003 172.0318 0011924 101.2625 258.9838 14.14661553565830
COSMOS 2084             
1 20663U 90055A   20262.60787036 -.00000048  00000-0  13334-4 0  9996
2 20663  62.7941 217.1545 0031986 303.4106  56.3929 14.92112547637250
SL-6 R/B(2)             
1 20666U 90055D   20262.37672478 -.00000051  00000-0  13416-4 0  9991
2 20666  62.7854 134.1326 0058645 359.4969   0.6055 14.92362789639169
SL-8 R/B                
1 20775U 90078B   20262.92003587  .00000717  00000-0  34268-4 0  9993
2 20775  82.9282 149.5581 0570938 265.0924  88.4887 14.34676030519144
SL-8 R/B                
1 21088U 91006B   20262.62373142  .00000074  00000-0  59452-4 0  9995
2 21088  82.9435 215.9389 0021310 228.1371 304.7538 13.77146138489035
OKEAN-3                 
1 21397U 91039A   20263.07948999  .00000181  00000-0  14898-4 0  9996
2 21397  82.5189  87.7010 0016940 212.3092 147.7092 14.92957245587298
COSMOS 2151             
1 21422U 91042A   20262.87207543  .00000130  00000-0  10243-4 0  9993
2 21422  82.5029 194.0027 0012589 283.1309  76.8506 14.92155438564811
SL-14 R/B               
1 21423U 91042B   20262.57338218  .00000061  00000-0  50673-5 0  9990
2 21423  82.4914 289.8721 0016502 318.0656  41.9292 14.79798545557432
ERS-1                   
1 21574U 91050A   20263.15882409  .00000022  00000-0  22130-4 0  9990
2 21574  98.6063 216.5871 0033345  10.4875 349.7000 14.37757601528566
ARIANE 40 R/B           
1 21610U 91050F   20262.81420270  .00000012  00000-0  17383-4 0  9990
2 21610  98.4579 331.0858 0002908   2.2395 106.8516 14.40913468531143
INTERCOSMOS 25          
1 21819U 91086A   20262.89808625  .00000109  00000-0  14270-4 0  9991
2 21819  82.5830  70.3616 1517149  72.9749 303.1545 12.05129294255545
SL-8 R/B                
1 21876U 92008B   20262.93498647  .00000084  00000-0  71038-4 0  9990
2 21876  82.9264 312.9445 0033672 314.4725 219.3041 13.75658837434725
SL-8 R/B                
1 21938U 92020B   20262.87742876  .00000002  00000-0 -14107-4 0  9997
2 21938  82.9331 197.2041 0030494 111.5521 308.5410 13.75276973426510
COSMOS 2219             
1 22219U 92076A   20263.18667484 -.00000086  00000-0 -20840-4 0  9991
2 22219  71.0570 231.9024 0017689   4.7254 355.4032 14.13638983436384
SL-16 R/B               
1 22220U 92076B   20262.94046128 -.00000208  00000-0 -80098-4 0  9999
2 22220  70.9994  74.7863 0015185 261.8409 208.3489 14.16460935438911
COSMOS 2221             
1 22236U 92080A   20262.56381328  .00000137  00000-0  12249-4 0  9995
2 22236  82.5109  15.6673 0017010  17.9494 342.2320 14.87947119483128
SL-16 R/B               
1 22285U 92093B   20262.39983706  .00000303  00000-0  18069-3 0  9992
2 22285  71.0184 237.5217 0002451 135.4495 224.6825 14.15047854430760
COSMOS 2228             
1 22286U 92094A   20263.17483241  .00000159  00000-0  14410-4 0  9996
2 22286  82.5218 331.4477 0022438 127.5677 232.7583 14.88165152499453
SL-16 R/B               
1 22566U 93016B   20262.64364581  .00000124  00000-0  88694-4 0  9995
2 22566  71.0055  90.1355 0008744 131.7851 228.4020 14.14962759419520
COSMOS 2242             
1 22626U 93024A   20263.02714988  .00000145  00000-0  13025-4 0  9993
2 22626  82.5251 359.7451 0020197 127.8864 232.4184 14.88020962483078
SL-16 R/B               
1 22803U 93059B   20263.16098658 -.00000027  00000-0  10448-4 0  9998
2 22803  70.9883 261.7854 0016943   5.3425 354.7875 14.16828600396831
ARIANE 40 R/B           
1 22830U 93061H   20263.10740347 -.00000015  00000-0  11449-4 0  9993
2 22830  98.7561 313.1299 0011715  51.9236 308.3001 14.31455879408477
COSMOS 2278             
1 23087U 94023A   20262.78254333 -.00000238  00000-0 -10099-3 0  9992
2 23087  71.0544  32.5790 0009970 211.5998 148.4527 14.13805972362382
SL-16 R/B               
1 23088U 94023B   20263.16063309  .00000193  00000-0  12517-3 0  9992
2 23088  70.9976 304.4374 0001185  96.0092 264.1165 14.14686960363830
SL-16 R/B               
1 23343U 94074B   20262.89641699 -.00000000  00000-0  72862-5 0  9994
2 23343  97.9898 315.0241 0006338 198.8801 334.2106 14.76836256392201
SL-16 R/B               
1 23405U 94077B   20262.36102421 -.00000254  00000-0 -10593-3 0  9996
2 23405  70.9818 235.1126 0004791 295.6621  64.4006 14.15225535333508
ERS-2                   
1 23560U 95021A   20262.90504193  .00000535  00000-0  26327-4 0  9993
2 23560  98.5520  69.2532 0002949 193.0736 167.0421 15.23292140356348
ARIANE 40+ R/B          
1 23561U 95021B   20263.11002501  .00000023  00000-0  22826-4 0  9996
2 23561  98.7162 303.7000 0006491 345.7433  71.2341 14.37982548332258
SL-16 R/B               
1 23705U 95058B   20262.82184315  .00000228  00000-0  14169-3 0  9994
2 23705  71.0221  53.0511 0014550 282.5097  77.4398 14.15137409285182
SL-16 R/B               
1 24298U 96051B   20262.92287436 -.00000140  00000-0 -49514-4 0  9993
2 24298  70.8400  73.4897 0018427 219.2904 140.6881 14.12496673239558
ORBVIEW 2 (SEASTAR)     
1 24883U 97037A   20262.85799056  .00000029  00000-0  26684-4 0  9993
2 24883  98.6193  15.7140 0002521 163.2967 196.8301 14.33569686222099
SL-16 R/B               
1 25400U 98043G   20262.78960107 -.00000020  00000-0  97075-5 0  9991
2 25400  98.6105 197.0120 0010984  65.6478 294.5847 14.25460604154315
SL-16 R/B               
1 25407U 98045B   20262.88268431 -.00000211  00000-0 -82899-4 0  9992
2 25407  71.0114  61.2535 0008227 207.7470 152.3216 14.15830643144309
ISS (ZARYA)             
1 25544U 98067A   20263.35063890  .00000391  00000-0  15250-4 0  9997
2 25544  51.6432 242.4987 0000884 106.7493  36.8506 15.48954403246619
SL-8 R/B                
1 25723U 99022C   20262.86920734  .00020475  00000-0  12495-3 0  9994
2 25723  48.4105 209.9407 0004639  86.1453 274.0031 15.77263114192391
CZ-4B R/B               
1 25732U 99025C   20262.86844145 -.00000022  00000-0  11716-4 0  9991
2 25732  98.9385 292.2211 0036451 305.3012 227.7430 14.17680888105052
OKEAN-O                 
1 25860U 99039A   20262.81759945  .00000028  00000-0  11589-4 0  9999
2 25860  98.2110 283.4250 0000841  76.4464 283.6839 14.76677899139299
SL-16 R/B               
1 25861U 99039B   20263.12344087 -.00000011  00000-0  60984-5 0  9999
2 25861  98.2106 267.1374 0014863 213.0762 188.8424 14.78590775141603
DELTA 2 R/B             
1 25876U 99041E   20262.79976694 -.00000043  00000-0  31789-4 0  9990
2 25876  51.7679 301.8352 0530778 256.3139  97.8179 14.04457306 81741
